[{"OBJECT_NAME":"ONEWEB-0200","OBJECT_ID":"2021-031AL","EPOCH":"2025-12-15T23:37:06.007584","MEAN_MOTION":13.14501508,"ECCENTRICITY":0.00017216,"INCLINATION":87.8993,"RA_OF_ASC_NODE":326.1934,"ARG_OF_PERICENTER":83.8025,"MEAN_ANOMALY":276.3301,"EPHEMERIS_TYPE":0,"CLASSIFICATION_TYPE":"U","NORAD_CAT_ID":48244,"ELEMENT_SET_NO":999,"REV_AT_EPOCH":22416,"BSTAR":-0.00037419138,"MEAN_MOTION_DOT":-1.26e-6,"MEAN_MOTION_DDOT":0},{"OBJECT_NAME":"ONEWEB-0217","OBJECT_ID":"2021-031AM","EPOCH":"2025-12-16T07:18:20.231712","MEAN_MOTION":13.14517722,"ECCENTRICITY":0.00016871,"INCLINATION":87.9003,"RA_OF_ASC_NODE":326.1241,"ARG_OF_PERICENTER":76.7046,"MEAN_ANOMALY":283.4272,"EPHEMERIS_TYPE":0,"CLASSIFICATION_TYPE":"U","NORAD_CAT_ID":48245,"ELEMENT_SET_NO":999,"REV_AT_EPOCH":22415,"BSTAR":0.0039849289,"MEAN_MOTION_DOT":1.491e-5,"MEAN_MOTION_DDOT":0},{"OBJECT_NAME":"ONEWEB-0211","OBJECT_ID":"2021-045A","EPOCH":"2025-12-16T06:47:29.114304","MEAN_MOTION":13.16137217,"ECCENTRICITY":0.00018546,"INCLINATION":87.9002,"RA_OF_ASC_NODE":295.6147,"ARG_OF_PERICENTER":64.0117,"MEAN_ANOMALY":296.1205,"EPHEMERIS_TYPE":0,"CLASSIFICATION_TYPE":"U","NORAD_CAT_ID":48767,"ELEMENT_SET_NO":999,"REV_AT_EPOCH":22038,"BSTAR":8.7075437e-5,"MEAN_MOTION_DOT":4.6e-7,"MEAN_MOTION_DDOT":0},{"OBJECT_NAME":"ONEWEB-0223","OBJECT_ID":"2021-045B","EPOCH":"2025-12-16T06:36:34.365600","MEAN_MOTION":13.15549294,"ECCENTRICITY":0.00021027,"INCLINATION":87.8998,"RA_OF_ASC_NODE":295.6811,"ARG_OF_PERICENTER":67.1611,"MEAN_ANOMALY":292.9741,"EPHEMERIS_TYPE":0,"CLASSIFICATION_TYPE":"U","NORAD_CAT_ID":48768,"ELEMENT_SET_NO":999,"REV_AT_EPOCH":22035,"BSTAR":-0.0001363118,"MEAN_MOTION_DOT":-3.8e-7,"MEAN_MOTION_DDOT":0},{"OBJECT_NAME":"ONEWEB-0230","OBJECT_ID":"2021-045C","EPOCH":"2025-12-16T07:45:00.725184","MEAN_MOTION":13.15550251,"ECCENTRICITY":0.00019187,"INCLINATION":87.8995,"RA_OF_ASC_NODE":295.7016,"ARG_OF_PERICENTER":82.3346,"MEAN_ANOMALY":277.8002,"EPHEMERIS_TYPE":0,"CLASSIFICATION_TYPE":"U","NORAD_CAT_ID":48769,"ELEMENT_SET_NO":999,"REV_AT_EPOCH":22062,"BSTAR":0.00024559357,"MEAN_MOTION_DOT":1.05e-6,"MEAN_MOTION_DDOT":0},{"OBJECT_NAME":"ONEWEB-0237","OBJECT_ID":"2021-045D","EPOCH":"2025-12-16T07:29:02.719392","MEAN_MOTION":13.15549741,"ECCENTRICITY":0.00020766,"INCLINATION":87.8998,"RA_OF_ASC_NODE":295.7039,"ARG_OF_PERICENTER":73.2794,"MEAN_ANOMALY":286.8564,"EPHEMERIS_TYPE":0,"CLASSIFICATION_TYPE":"U","NORAD_CAT_ID":48770,"ELEMENT_SET_NO":999,"REV_AT_EPOCH":22034,"BSTAR":0.00049944444,"MEAN_MOTION_DOT":2.01e-6,"MEAN_MOTION_DDOT":0},{"OBJECT_NAME":"ONEWEB-0235","OBJECT_ID":"2021-045E","EPOCH":"2025-12-16T06:52:31.892736","MEAN_MOTION":13.15549974,"ECCENTRICITY":0.00021678,"INCLINATION":87.8999,"RA_OF_ASC_NODE":295.6797,"ARG_OF_PERICENTER":67.929,"MEAN_ANOMALY":292.2071,"EPHEMERIS_TYPE":0,"CLASSIFICATION_TYPE":"U","NORAD_CAT_ID":48771,"ELEMENT_SET_NO":999,"REV_AT_EPOCH":22033,"BSTAR":0.00031165511,"MEAN_MOTION_DOT":1.3e-6,"MEAN_MOTION_DDOT":0},{"OBJECT_NAME":"ONEWEB-0242","OBJECT_ID":"2021-045F","EPOCH":"2025-12-16T06:43:24.521088","MEAN_MOTION":13.15550473,"ECCENTRICITY":0.00020134,"INCLINATION":87.9004,"RA_OF_ASC_NODE":295.6747,"ARG_OF_PERICENTER":77.3486,"MEAN_ANOMALY":282.787,"EPHEMERIS_TYPE":0,"CLASSIFICATION_TYPE":"U","NORAD_CAT_ID":48772,"ELEMENT_SET_NO":999,"REV_AT_EPOCH":22037,"BSTAR":2.7444429e-5,"MEAN_MOTION_DOT":2.3e-7,"MEAN_MOTION_DDOT":0},{"OBJECT_NAME":"ONEWEB-0241","OBJECT_ID":"2021-045G","EPOCH":"2025-12-16T08:14:39.367680","MEAN_MOTION":13.15547081,"ECCENTRICITY":0.00018928,"INCLINATION":87.8994,"RA_OF_ASC_NODE":295.6994,"ARG_OF_PERICENTER":65.5064,"MEAN_ANOMALY":294.6264,"EPHEMERIS_TYPE":0,"CLASSIFICATION_TYPE":"U","NORAD_CAT_ID":48773,"ELEMENT_SET_NO":999,"REV_AT_EPOCH":22029,"BSTAR":-0.00073090434,"MEAN_MOTION_DOT":-2.62e-6,"MEAN_MOTION_DDOT":0},{"OBJECT_NAME":"ONEWEB-0243","OBJECT_ID":"2021-045H","EPOCH":"2025-12-16T07:10:47.516448","MEAN_MOTION":13.15549292,"ECCENTRICITY":0.00022178,"INCLINATION":87.8996,"RA_OF_ASC_NODE":295.7178,"ARG_OF_PERICENTER":73.5841,"MEAN_ANOMALY":286.5533,"EPHEMERIS_TYPE":0,"CLASSIFICATION_TYPE":"U","NORAD_CAT_ID":48774,"ELEMENT_SET_NO":999,"REV_AT_EPOCH":22031,"BSTAR":0.00047118236,"MEAN_MOTION_DOT":1.9e-6,"MEAN_MOTION_DDOT":0},{"OBJECT_NAME":"ONEWEB-0222","OBJECT_ID":"2021-045J","EPOCH":"2025-12-16T06:46:49.775520","MEAN_MOTION":13.15548219,"ECCENTRICITY":0.00019151,"INCLINATION":87.8999,"RA_OF_ASC_NODE":295.6745,"ARG_OF_PERICENTER":73.6314,"MEAN_ANOMALY":286.5026,"EPHEMERIS_TYPE":0,"CLASSIFICATION_TYPE":"U","NORAD_CAT_ID":48775,"ELEMENT_SET_NO":999,"REV_AT_EPOCH":22035,"BSTAR":0.00011424127,"MEAN_MOTION_DOT":5.6e-7,"MEAN_MOTION_DDOT":0},{"OBJECT_NAME":"ONEWEB-0244","OBJECT_ID":"2021-045K","EPOCH":"2025-12-16T07:24:28.723392","MEAN_MOTION":13.15550496,"ECCENTRICITY":0.00019441,"INCLINATION":87.9012,"RA_OF_ASC_NODE":295.657,"ARG_OF_PERICENTER":75.2637,"MEAN_ANOMALY":284.8709,"EPHEMERIS_TYPE":0,"CLASSIFICATION_TYPE":"U","NORAD_CAT_ID":48776,"ELEMENT_SET_NO":999,"REV_AT_EPOCH":22092,"BSTAR":0.00054405568,"MEAN_MOTION_DOT":2.18e-6,"MEAN_MOTION_DDOT":0},{"OBJECT_NAME":"ONEWEB-0247","OBJECT_ID":"2021-045L","EPOCH":"2025-12-16T07:19:55.365024","MEAN_MOTION":13.15549705,"ECCENTRICITY":0.00026939,"INCLINATION":87.899,"RA_OF_ASC_NODE":295.7135,"ARG_OF_PERICENTER":66.2976,"MEAN_ANOMALY":293.8436,"EPHEMERIS_TYPE":0,"CLASSIFICATION_TYPE":"U","NORAD_CAT_ID":48777,"ELEMENT_SET_NO":999,"REV_AT_EPOCH":22036,"BSTAR":0.00061109866,"MEAN_MOTION_DOT":2.43e-6,"MEAN_MOTION_DDOT":0},{"OBJECT_NAME":"ONEWEB-0245","OBJECT_ID":"2021-045M","EPOCH":"2025-12-16T07:13:04.620288","MEAN_MOTION":13.15549675,"ECCENTRICITY":0.00017585,"INCLINATION":87.8994,"RA_OF_ASC_NODE":295.679,"ARG_OF_PERICENTER":71.4008,"MEAN_ANOMALY":288.7313,"EPHEMERIS_TYPE":0,"CLASSIFICATION_TYPE":"U","NORAD_CAT_ID":48778,"ELEMENT_SET_NO":999,"REV_AT_EPOCH":22033,"BSTAR":0.00039351941,"MEAN_MOTION_DOT":1.61e-6,"MEAN_MOTION_DDOT":0},{"OBJECT_NAME":"ONEWEB-0229","OBJECT_ID":"2021-045N","EPOCH":"2025-12-16T07:06:13.767552","MEAN_MOTION":13.15549142,"ECCENTRICITY":0.0002007,"INCLINATION":87.8991,"RA_OF_ASC_NODE":295.6784,"ARG_OF_PERICENTER":77.8917,"MEAN_ANOMALY":282.2438,"EPHEMERIS_TYPE":0,"CLASSIFICATION_TYPE":"U","NORAD_CAT_ID":48779,"ELEMENT_SET_NO":999,"REV_AT_EPOCH":22036,"BSTAR":0.00039521514,"MEAN_MOTION_DOT":1.62e-6,"MEAN_MOTION_DDOT":0},{"OBJECT_NAME":"ONEWEB-0228","OBJECT_ID":"2021-045P","EPOCH":"2025-12-16T07:54:20.710368","MEAN_MOTION":13.15547867,"ECCENTRICITY":0.00019149,"INCLINATION":87.9005,"RA_OF_ASC_NODE":295.6563,"ARG_OF_PERICENTER":75.2655,"MEAN_ANOMALY":284.8688,"EPHEMERIS_TYPE":0,"CLASSIFICATION_TYPE":"U","NORAD_CAT_ID":48780,"ELEMENT_SET_NO":999,"REV_AT_EPOCH":22028,"BSTAR":-0.00022191872,"MEAN_MOTION_DOT":-7.1e-7,"MEAN_MOTION_DDOT":0}]
