ONEWEB-0200             
1 48244U 21031AL  25349.98409731 -.00000126  00000+0 -37419-3 0  9990
2 48244  87.8993 326.1934 0001721  83.8025 276.3301 13.14501508224168
ONEWEB-0217             
1 48245U 21031AM  25350.30440083  .00001491  00000+0  39849-2 0  9996
2 48245  87.9003 326.1241 0001687  76.7046 283.4272 13.14517722224158
ONEWEB-0211             
1 48767U 21045A   25350.28297586  .00000046  00000+0  87075-4 0  9996
2 48767  87.9002 295.6147 0001854  64.0117 296.1205 13.16137217220383
ONEWEB-0223             
1 48768U 21045B   25350.27539775 -.00000038  00000+0 -13631-3 0  9994
2 48768  87.8998 295.6811 0002102  67.1611 292.9741 13.15549294220352
ONEWEB-0230             
1 48769U 21045C   25350.32292506  .00000105  00000+0  24559-3 0  9993
2 48769  87.8995 295.7016 0001918  82.3346 277.8002 13.15550251220623
ONEWEB-0237             
1 48770U 21045D   25350.31183703  .00000201  00000+0  49944-3 0  9994
2 48770  87.8998 295.7039 0002076  73.2794 286.8564 13.15549741220349
ONEWEB-0235             
1 48771U 21045E   25350.28648024  .00000130  00000+0  31166-3 0  9991
2 48771  87.8999 295.6797 0002167  67.9290 292.2071 13.15549974220334
ONEWEB-0242             
1 48772U 21045F   25350.28014492  .00000023  00000+0  27444-4 0  9994
2 48772  87.9004 295.6747 0002013  77.3486 282.7870 13.15550473220371
ONEWEB-0241             
1 48773U 21045G   25350.34351120 -.00000262  00000+0 -73090-3 0  9998
2 48773  87.8994 295.6994 0001892  65.5064 294.6264 13.15547081220299
ONEWEB-0243             
1 48774U 21045H   25350.29916107  .00000190  00000+0  47118-3 0  9995
2 48774  87.8996 295.7178 0002217  73.5841 286.5533 13.15549292220319
ONEWEB-0222             
1 48775U 21045J   25350.28252055  .00000056  00000+0  11424-3 0  9992
2 48775  87.8999 295.6745 0001915  73.6314 286.5026 13.15548219220351
ONEWEB-0244             
1 48776U 21045K   25350.30866578  .00000218  00000+0  54406-3 0  9994
2 48776  87.9012 295.6570 0001944  75.2637 284.8709 13.15550496220925
ONEWEB-0247             
1 48777U 21045L   25350.30550191  .00000243  00000+0  61110-3 0  9994
2 48777  87.8990 295.7135 0002693  66.2976 293.8436 13.15549705220362
ONEWEB-0245             
1 48778U 21045M   25350.30074792  .00000161  00000+0  39352-3 0  9995
2 48778  87.8994 295.6790 0001758  71.4008 288.7313 13.15549675220338
ONEWEB-0229             
1 48779U 21045N   25350.29599268  .00000162  00000+0  39522-3 0  9994
2 48779  87.8991 295.6784 0002007  77.8917 282.2438 13.15549142220365
ONEWEB-0228             
1 48780U 21045P   25350.32940637 -.00000071  00000+0 -22192-3 0  9996
2 48780  87.9005 295.6563 0001914  75.2655 284.8688 13.15547867220284
